[{"OBJECT_NAME":"STRIX-2","OBJECT_ID":"2024-248A","EPOCH":"2026-03-09T23:00:54.819648","MEAN_MOTION":15.07630986,"ECCENTRICITY":0.00151844,"INCLINATION":97.6197,"RA_OF_ASC_NODE":25.3276,"ARG_OF_PERICENTER":319.5195,"MEAN_ANOMALY":40.4902,"EPHEMERIS_TYPE":0,"CLASSIFICATION_TYPE":"U","NORAD_CAT_ID":62406,"ELEMENT_SET_NO":999,"REV_AT_EPOCH":6663,"BSTAR":0.00066021351,"MEAN_MOTION_DOT":0.00010025,"MEAN_MOTION_DDOT":0},{"OBJECT_NAME":"STARLINK-34935","OBJECT_ID":"2025-184E","EPOCH":"2026-03-09T22:51:52.994016","MEAN_MOTION":15.05649777,"ECCENTRICITY":0.00011009,"INCLINATION":97.6036,"RA_OF_ASC_NODE":122.9671,"ARG_OF_PERICENTER":97.5253,"MEAN_ANOMALY":262.6099,"EPHEMERIS_TYPE":0,"CLASSIFICATION_TYPE":"U","NORAD_CAT_ID":65277,"ELEMENT_SET_NO":999,"REV_AT_EPOCH":3134,"BSTAR":0.00023691638,"MEAN_MOTION_DOT":3.359e-5,"MEAN_MOTION_DDOT":0}]
